start=new Date('2022-10-19T00:00:00.000Z').valueOf();
sats=[{"BSTAR":"-0.00005431700000","TLE_LINE1":"1 46719U 20073BB  22291.53758965 -.00001090  00000-0 -54317-4 0  9999","MEAN_ELEMENT_THEORY":"SGP4","REV_AT_EPOCH":"11127","GP_ID":"215470359","TIME_SYSTEM":"UTC","SITE":"AFETR","SEMIMAJOR_AXIS":"6925.384","EPHEMERIS_TYPE":"0","EPOCH":"2022-10-18T12:54:07.745760","OBJECT_NAME":"STARLINK-1822","NORAD_CAT_ID":"46719","INCLINATION":"53.0566","PERIOD":"95.593","OBJECT_TYPE":"PAYLOAD","CENTER_NAME":"EARTH","MEAN_MOTION_DOT":"-0.00001090","RCS_SIZE":"LARGE","APOAPSIS":"548.691","REF_FRAME":"TEME","RA_OF_ASC_NODE":"19.9029","MEAN_MOTION_DDOT":"0.0000000000000","FILE":"3621226","MEAN_MOTION":"15.06388524","ELEMENT_SET_NO":"999","OBJECT_ID":"2020-073BB","CLASSIFICATION_TYPE":"U","ARG_OF_PERICENTER":"46.2146","MEAN_ANOMALY":"313.9015","COUNTRY_CODE":"US","TLE_LINE2":"2 46719  53.0566  19.9029 0002082  46.2146 313.9015 15.06388524111275","PERIAPSIS":"545.807","LAUNCH_DATE":"2020-10-18","DECAY_DATE":null,"ECCENTRICITY":"0.00020820"},{"FILE":"3621750","ELEMENT_SET_NO":"999","OBJECT_ID":"2020-073BE","MEAN_MOTION":"15.06390943","CLASSIFICATION_TYPE":"U","ARG_OF_PERICENTER":"63.2528","REF_FRAME":"TEME","RCS_SIZE":"LARGE","APOAPSIS":"548.280","MEAN_MOTION_DDOT":"0.0000000000000","RA_OF_ASC_NODE":"54.4179","DECAY_DATE":null,"LAUNCH_DATE":"2020-10-18","ECCENTRICITY":"0.00015000","MEAN_ANOMALY":"296.8615","TLE_LINE2":"2 46722  53.0558  54.4179 0001500  63.2528 296.8615 15.06390943110314","PERIAPSIS":"546.203","COUNTRY_CODE":"US","SITE":"AFETR","SEMIMAJOR_AXIS":"6925.376","BSTAR":"0.00002379600000","GP_ID":"215526515","TIME_SYSTEM":"UTC","TLE_LINE1":"1 46722U 20073BE  22291.64678309  .00000073  00000-0  23796-4 0  9993","MEAN_ELEMENT_THEORY":"SGP4","REV_AT_EPOCH":"11031","OBJECT_TYPE":"PAYLOAD","PERIOD":"95.593","MEAN_MOTION_DOT":"0.00000073","CENTER_NAME":"EARTH","OBJECT_NAME":"STARLINK-1825","EPHEMERIS_TYPE":"0","EPOCH":"2022-10-18T15:31:22.058976","NORAD_CAT_ID":"46722","INCLINATION":"53.0558"},{"PERIOD":"95.593","OBJECT_TYPE":"PAYLOAD","MEAN_MOTION_DOT":"0.00002525","CENTER_NAME":"EARTH","OBJECT_NAME":"STARLINK-1826","EPOCH":"2022-10-18T16:08:32.191584","EPHEMERIS_TYPE":"0","INCLINATION":"53.0581","NORAD_CAT_ID":"46723","SITE":"AFETR","SEMIMAJOR_AXIS":"6925.410","BSTAR":"0.00018842000000","TIME_SYSTEM":"UTC","GP_ID":"215526776","MEAN_ELEMENT_THEORY":"SGP4","REV_AT_EPOCH":"11088","TLE_LINE1":"1 46723U 20073BF  22291.67259481  .00002525  00000-0  18842-3 0  9992","DECAY_DATE":null,"LAUNCH_DATE":"2020-10-18","ECCENTRICITY":"0.00018280","MEAN_ANOMALY":"314.5024","PERIAPSIS":"546.009","TLE_LINE2":"2 46723  53.0581  14.3060 0001828  45.6114 314.5024 15.06379896110881","COUNTRY_CODE":"US","CLASSIFICATION_TYPE":"U","FILE":"3621750","ELEMENT_SET_NO":"999","OBJECT_ID":"2020-073BF","MEAN_MOTION":"15.06379896","ARG_OF_PERICENTER":"45.6114","REF_FRAME":"TEME","RCS_SIZE":"LARGE","APOAPSIS":"548.541","MEAN_MOTION_DDOT":"0.0000000000000","RA_OF_ASC_NODE":"14.3060"},{"CLASSIFICATION_TYPE":"U","MEAN_MOTION":"15.06388452","FILE":"3621750","ELEMENT_SET_NO":"999","OBJECT_ID":"2020-073BH","ARG_OF_PERICENTER":"81.6936","REF_FRAME":"TEME","RCS_SIZE":"LARGE","APOAPSIS":"548.169","MEAN_MOTION_DDOT":"0.0000000000000","RA_OF_ASC_NODE":"54.5834","DECAY_DATE":null,"LAUNCH_DATE":"2020-10-18","ECCENTRICITY":"0.00013280","MEAN_ANOMALY":"278.4204","PERIAPSIS":"546.329","TLE_LINE2":"2 46725  53.0575  54.5834 0001328  81.6936 278.4204 15.06388452110312","COUNTRY_CODE":"US","SITE":"AFETR","SEMIMAJOR_AXIS":"6925.384","BSTAR":"0.00009022800000","TIME_SYSTEM":"UTC","GP_ID":"215525525","MEAN_ELEMENT_THEORY":"SGP4","REV_AT_EPOCH":"11031","TLE_LINE1":"1 46725U 20073BH  22291.60992118  .00001062  00000-0  90228-4 0  9992","PERIOD":"95.593","OBJECT_TYPE":"PAYLOAD","CENTER_NAME":"EARTH","MEAN_MOTION_DOT":"0.00001062","OBJECT_NAME":"STARLINK-1828","EPOCH":"2022-10-18T14:38:17.189952","EPHEMERIS_TYPE":"0","INCLINATION":"53.0575","NORAD_CAT_ID":"46725"},{"SITE":"AFETR","SEMIMAJOR_AXIS":"6925.375","BSTAR":"-0.00009264500000","GP_ID":"215526275","TIME_SYSTEM":"UTC","TLE_LINE1":"1 46726U 20073BJ  22291.56796773 -.00001661  00000-0 -92645-4 0  9999","MEAN_ELEMENT_THEORY":"SGP4","REV_AT_EPOCH":"11051","PERIOD":"95.593","OBJECT_TYPE":"PAYLOAD","MEAN_MOTION_DOT":"-0.00001661","CENTER_NAME":"EARTH","OBJECT_NAME":"STARLINK-1829","EPHEMERIS_TYPE":"0","EPOCH":"2022-10-18T13:37:52.411872","NORAD_CAT_ID":"46726","INCLINATION":"53.0561","ELEMENT_SET_NO":"999","FILE":"3621750","MEAN_MOTION":"15.06391283","OBJECT_ID":"2020-073BJ","CLASSIFICATION_TYPE":"U","ARG_OF_PERICENTER":"119.4895","REF_FRAME":"TEME","APOAPSIS":"548.238","RCS_SIZE":"LARGE","MEAN_MOTION_DDOT":"0.0000000000000","RA_OF_ASC_NODE":"39.7542","DECAY_DATE":null,"LAUNCH_DATE":"2020-10-18","ECCENTRICITY":"0.00014400","MEAN_ANOMALY":"240.6238","TLE_LINE2":"2 46726  53.0561  39.7542 0001440 119.4895 240.6238 15.06391283110514","PERIAPSIS":"546.243","COUNTRY_CODE":"US"},{"ECCENTRICITY":"0.00018380","DECAY_DATE":null,"LAUNCH_DATE":"2020-10-18","PERIAPSIS":"545.953","TLE_LINE2":"2 46727  53.0571  14.6687 0001838  47.2325 312.8818 15.06395996110875","COUNTRY_CODE":"US","MEAN_ANOMALY":"312.8818","ARG_OF_PERICENTER":"47.2325","CLASSIFICATION_TYPE":"U","ELEMENT_SET_NO":"999","FILE":"3621750","OBJECT_ID":"2020-073BK","MEAN_MOTION":"15.06395996","MEAN_MOTION_DDOT":"0.0000000000000","RA_OF_ASC_NODE":"14.6687","REF_FRAME":"TEME","APOAPSIS":"548.499","RCS_SIZE":"LARGE","MEAN_MOTION_DOT":"-0.00000057","CENTER_NAME":"EARTH","OBJECT_TYPE":"PAYLOAD","PERIOD":"95.592","INCLINATION":"53.0571","NORAD_CAT_ID":"46727","OBJECT_NAME":"STARLINK-1830","EPOCH":"2022-10-18T14:11:45.205152","EPHEMERIS_TYPE":"0","SEMIMAJOR_AXIS":"6925.361","SITE":"AFETR","TIME_SYSTEM":"UTC","GP_ID":"215526017","MEAN_ELEMENT_THEORY":"SGP4","REV_AT_EPOCH":"11087","TLE_LINE1":"1 46727U 20073BK  22291.59149543 -.00000057  00000-0  15066-4 0  9999","BSTAR":"0.00001506600000"},{"ARG_OF_PERICENTER":"107.3095","ELEMENT_SET_NO":"999","FILE":"3621750","MEAN_MOTION":"15.06397715","OBJECT_ID":"2020-074B","CLASSIFICATION_TYPE":"U","RA_OF_ASC_NODE":"123.6528","MEAN_MOTION_DDOT":"0.0000000000000","RCS_SIZE":"LARGE","APOAPSIS":"548.228","REF_FRAME":"TEME","ECCENTRICITY":"0.00014550","LAUNCH_DATE":"2020-10-24","DECAY_DATE":null,"COUNTRY_CODE":"US","TLE_LINE2":"2 46740  53.0550 123.6528 0001455 107.3095 252.8054 15.06397715110022","PERIAPSIS":"546.213","MEAN_ANOMALY":"252.8054","SEMIMAJOR_AXIS":"6925.356","SITE":"AFETR","TLE_LINE1":"1 46740U 20074B   22291.81725078  .00001540  00000-0  12229-3 0  9997","MEAN_ELEMENT_THEORY":"SGP4","REV_AT_EPOCH":"11002","GP_ID":"215526777","TIME_SYSTEM":"UTC","BSTAR":"0.00012229000000","CENTER_NAME":"EARTH","MEAN_MOTION_DOT":"0.00001540","OBJECT_TYPE":"PAYLOAD","PERIOD":"95.592","NORAD_CAT_ID":"46740","INCLINATION":"53.0550","EPHEMERIS_TYPE":"0","EPOCH":"2022-10-18T19:36:50.467392","OBJECT_NAME":"STARLINK-1848"},{"MEAN_MOTION_DOT":"-0.00000290","CENTER_NAME":"EARTH","OBJECT_TYPE":"PAYLOAD","PERIOD":"95.593","NORAD_CAT_ID":"46741","INCLINATION":"53.0549","EPHEMERIS_TYPE":"0","EPOCH":"2022-10-18T05:41:33.320544","OBJECT_NAME":"STARLINK-1865","SEMIMAJOR_AXIS":"6925.376","SITE":"AFETR","TLE_LINE1":"1 46741U 20074C   22291.23719121 -.00000290  00000-0 -56319-6 0  9990","MEAN_ELEMENT_THEORY":"SGP4","REV_AT_EPOCH":"11001","GP_ID":"215494184","TIME_SYSTEM":"UTC","BSTAR":"-0.00000056319000","ECCENTRICITY":"0.00013370","LAUNCH_DATE":"2020-10-24","DECAY_DATE":null,"COUNTRY_CODE":"US","TLE_LINE2":"2 46741  53.0549 121.2544 0001337 105.4396 254.6741 15.06391193110011","PERIAPSIS":"546.315","MEAN_ANOMALY":"254.6741","ARG_OF_PERICENTER":"105.4396","MEAN_MOTION":"15.06391193","FILE":"3621474","ELEMENT_SET_NO":"999","OBJECT_ID":"2020-074C","CLASSIFICATION_TYPE":"U","RA_OF_ASC_NODE":"121.2544","MEAN_MOTION_DDOT":"0.0000000000000","APOAPSIS":"548.166","RCS_SIZE":"LARGE","REF_FRAME":"TEME"},{"MEAN_ANOMALY":"321.4846","COUNTRY_CODE":"US","PERIAPSIS":"417.307","TLE_LINE2":"2 46742  53.0549 113.1223 0001007  38.6234 321.4846 15.49567968110121","LAUNCH_DATE":"2020-10-24","DECAY_DATE":null,"ECCENTRICITY":"0.00010070","APOAPSIS":"418.675","RCS_SIZE":"LARGE","REF_FRAME":"TEME","RA_OF_ASC_NODE":"113.1223","MEAN_MOTION_DDOT":"0.0000000000000","CLASSIFICATION_TYPE":"U","MEAN_MOTION":"15.49567968","FILE":"3621474","ELEMENT_SET_NO":"999","OBJECT_ID":"2020-074D","ARG_OF_PERICENTER":"38.6234","EPOCH":"2022-10-18T05:43:31.331712","EPHEMERIS_TYPE":"0","OBJECT_NAME":"STARLINK-1872","INCLINATION":"53.0549","NORAD_CAT_ID":"46742","PERIOD":"92.929","OBJECT_TYPE":"PAYLOAD","MEAN_MOTION_DOT":"0.00034766","CENTER_NAME":"EARTH","BSTAR":"0.00062461000000","MEAN_ELEMENT_THEORY":"SGP4","REV_AT_EPOCH":"11012","TLE_LINE1":"1 46742U 20074D   22291.23855708  .00034766  00000-0  62461-3 0  9998","TIME_SYSTEM":"UTC","GP_ID":"215494433","SITE":"AFETR","SEMIMAJOR_AXIS":"6796.126"},{"REF_FRAME":"TEME","APOAPSIS":"548.256","RCS_SIZE":"LARGE","MEAN_MOTION_DDOT":"0.0000000000000","RA_OF_ASC_NODE":"122.4597","ELEMENT_SET_NO":"999","FILE":"3621474","MEAN_MOTION":"15.06392225","OBJECT_ID":"2020-074E","CLASSIFICATION_TYPE":"U","ARG_OF_PERICENTER":"122.2360","MEAN_ANOMALY":"237.8772","TLE_LINE2":"2 46743  53.0545 122.4597 0001471 122.2360 237.8772 15.06392225109974","PERIAPSIS":"546.219","COUNTRY_CODE":"US","DECAY_DATE":null,"LAUNCH_DATE":"2020-10-24","ECCENTRICITY":"0.00014710","BSTAR":"-0.00000161480000","GP_ID":"215494685","TIME_SYSTEM":"UTC","TLE_LINE1":"1 46743U 20074E   22290.96442327 -.00000306  00000-0 -16148-5 0  9995","MEAN_ELEMENT_THEORY":"SGP4","REV_AT_EPOCH":"10997","SITE":"AFETR","SEMIMAJOR_AXIS":"6925.372","OBJECT_NAME":"STARLINK-1892","EPHEMERIS_TYPE":"0","EPOCH":"2022-10-17T23:08:46.170528","NORAD_CAT_ID":"46743","INCLINATION":"53.0545","OBJECT_TYPE":"PAYLOAD","PERIOD":"95.593","MEAN_MOTION_DOT":"-0.00000306","CENTER_NAME":"EARTH"}];
